{"type":"FeatureCollection","features":[{"type":"Feature","properties":{"name":"Approx. SWIS extent (derived from Western Power network)"},"geometry":{"type":"MultiPolygon","coordinates":[[[[114.22221,-27.66728],[114.22332,-27.81272],[114.623,-27.88266],[114.63188,-27.63508],[114.75178,-27.64952],[114.84948,-27.85269],[115.31799,-27.85602],[115.31466,-28.09472],[115.43235,-28.20574],[115.71878,-28.23793],[115.74321,-28.38559],[116.00163,-28.43748],[116.00767,-28.65613],[116.08306,-28.79185],[116.23838,-28.87026],[116.30322,-28.9728],[116.31227,-29.20049],[116.95465,-28.69232],[117.01346,-28.75415],[116.40425,-29.25327],[116.47512,-29.30756],[116.69981,-29.29851],[116.70433,-29.54581],[116.86424,-29.8654],[117.15353,-29.65647],[117.46425,-29.90022],[117.53657,-30.02076],[117.46754,-30.24394],[117.54762,-30.25438],[117.77568,-30.02807],[117.99677,-30.09074],[118.0904,-30.2073],[118.31898,-30.20051],[118.36424,-30.38609],[118.40724,-30.42456],[118.72182,-30.43135],[118.7173,-30.67577],[118.88251,-30.87267],[119.11062,-30.85255],[119.27357,-30.9823],[119.33392,-30.93402],[119.52704,-31.0517],[119.52704,-31.18146],[119.81672,-31.21767],[120.60158,-31.05822],[121.02588,-30.92019],[121.24632,-30.83752],[120.9974,-30.58319],[120.9487,-30.51176],[120.90432,-30.39704],[120.48173,-30.07782],[120.6228,-30.00594],[121.26548,-29.99408],[121.45283,-30.39012],[121.57614,-30.26206],[121.76587,-30.34032],[121.75638,-30.61305],[121.9295,-30.59645],[121.84887,-30.86205],[122.13582,-31.04703],[122.06942,-31.14189],[121.7967,-30.98063],[121.77298,-31.01146],[121.78721,-31.22727],[121.6544,-31.28655],[121.49789,-31.15612],[121.27496,-31.08735],[120.62991,-31.20829],[119.87577,-31.44307],[119.65048,-31.59011],[119.42044,-31.66125],[119.49396,-31.80354],[119.43467,-32.01698],[119.2497,-32.08338],[119.26867,-32.16401],[119.4821,-32.08338],[119.76194,-32.02409],[119.84969,-32.03121],[119.83619,-32.60867],[119.77629,-32.66584],[119.89881,-32.91905],[120.19558,-33.13687],[120.31538,-33.43636],[120.5223,-33.49626],[120.35077,-33.67868],[119.96687,-33.64056],[119.18316,-34.01437],[119.21089,-34.09755],[119.37331,-34.15697],[119.47455,-34.36971],[119.47723,-34.37317],[119.47342,-34.37419],[119.47042,-34.37269],[119.46502,-34.37269],[119.46392,-34.37609],[119.45742,-34.37709],[119.45332,-34.37579],[119.45012,-34.37739],[119.44572,-34.37329],[119.45002,-34.37039],[119.44732,-34.36699],[119.44292,-34.36499],[119.42172,-34.36659],[119.40582,-34.37319],[119.39672,-34.38319],[119.39542,-34.38819],[119.39622,-34.39149],[119.40142,-34.39019],[119.40362,-34.39239],[119.39342,-34.40329],[119.38832,-34.41589],[119.39112,-34.42019],[119.39632,-34.42129],[119.39902,-34.42399],[119.39772,-34.42939],[119.39452,-34.43239],[119.39352,-34.43619],[119.40032,-34.44129],[119.39872,-34.44469],[119.39962,-34.44789],[119.41482,-34.45229],[119.40842,-34.45689],[119.40232,-34.45369],[119.39502,-34.45509],[119.39152,-34.45379],[119.38662,-34.45559],[119.37863,-34.46629],[119.38273,-34.47369],[119.38063,-34.47779],[119.37603,-34.48009],[119.36973,-34.47949],[119.36513,-34.47519],[119.35503,-34.47119],[119.35253,-34.46689],[119.36063,-34.46399],[119.36273,-34.45879],[119.35582,-34.44819],[119.34523,-34.44579],[119.34302,-34.44219],[119.31283,-34.44079],[119.29113,-34.44589],[119.28003,-34.45189],[119.27303,-34.45869],[119.26853,-34.46569],[119.27103,-34.46729],[119.27133,-34.47059],[119.27703,-34.47359],[119.27353,-34.48079],[119.27883,-34.48819],[119.28473,-34.48909],[119.28183,-34.49199],[119.28223,-34.50079],[119.27973,-34.50149],[119.28143,-34.50869],[119.27823,-34.50849],[119.27523,-34.51099],[119.27443,-34.51409],[119.27773,-34.51679],[119.27633,-34.51909],[119.26653,-34.51459],[119.26403,-34.51199],[119.25403,-34.51589],[119.25543,-34.51859],[119.25173,-34.52619],[119.25443,-34.52869],[119.25223,-34.53049],[119.24953,-34.52829],[119.23763,-34.53059],[119.23483,-34.52819],[119.22533,-34.52889],[119.22153,-34.52709],[119.22903,-34.51939],[119.23503,-34.51569],[119.23663,-34.51189],[119.22453,-34.49939],[119.20353,-34.48999],[119.17873,-34.48289],[119.17713,-34.48589],[119.17193,-34.48859],[119.17173,-34.49129],[119.15593,-34.49119],[119.15213,-34.49249],[119.14473,-34.48879],[119.14613,-34.48559],[119.13293,-34.47639],[119.11113,-34.46769],[119.07443,-34.45999],[119.06513,-34.45689],[119.05813,-34.46149],[119.00933,-34.45199],[118.98103,-34.44759],[118.96423,-34.44739],[118.93163,-34.45139],[118.90963,-34.45909],[118.90013,-34.46409],[118.89953,-34.45529],[118.89333,-34.45059],[118.89443,-34.45449],[118.88973,-34.45289],[118.88703,-34.44929],[118.88073,-34.44709],[118.87423,-34.45139],[118.87183,-34.44849],[118.86313,-34.44529],[118.85733,-34.44649],[118.85823,-34.45299],[118.86203,-34.45069],[118.86443,-34.45369],[118.86473,-34.45769],[118.87433,-34.46219],[118.87893,-34.45919],[118.88953,-34.46149],[118.88623,-34.46309],[118.88923,-34.46509],[118.89333,-34.46349],[118.89723,-34.47069],[118.89723,-34.47469],[118.90373,-34.47789],[118.90403,-34.48189],[118.90783,-34.48349],[118.90843,-34.48549],[118.90463,-34.48599],[118.90223,-34.49299],[118.90463,-34.49589],[118.90933,-34.49679],[118.91013,-34.49879],[118.90253,-34.49969],[118.88013,-34.49619],[118.84243,-34.49859],[118.80483,-34.50839],[118.80003,-34.51269],[118.80383,-34.51419],[118.78073,-34.52239],[118.76663,-34.5312],[118.75953,-34.5333],[118.74353,-34.5482],[118.73673,-34.5624],[118.73433,-34.5719],[118.74453,-34.5926],[118.74963,-34.5932],[118.75103,-34.5984],[118.75763,-34.6013],[118.77743,-34.6047],[118.77363,-34.6072],[118.77043,-34.6124],[118.76693,-34.6126],[118.76253,-34.616],[118.75793,-34.6155],[118.75223,-34.6189],[118.74863,-34.6178],[118.74083,-34.6302],[118.74083,-34.637],[118.73453,-34.6375],[118.72693,-34.6415],[118.72473,-34.6465],[118.71773,-34.6521],[118.71883,-34.6544],[118.70703,-34.6519],[118.70403,-34.6526],[118.70103,-34.6513],[118.69673,-34.6517],[118.69563,-34.654],[118.67573,-34.6621],[118.65833,-34.6662],[118.64793,-34.6737],[118.64553,-34.6775],[118.64663,-34.6851],[118.63763,-34.6883],[118.63653,-34.6861],[118.61693,-34.6832],[118.60713,-34.6875],[118.60683,-34.6902],[118.60513,-34.6877],[118.60243,-34.6881],[118.59623,-34.6949],[118.59183,-34.6929],[118.58063,-34.6947],[118.58143,-34.6983],[118.57683,-34.6976],[118.57523,-34.7017],[118.57113,-34.7017],[118.56923,-34.6987],[118.54763,-34.7026],[118.54793,-34.7087],[118.54493,-34.7087],[118.54733,-34.7092],[118.54293,-34.7098],[118.54133,-34.713],[118.53633,-34.7123],[118.53333,-34.7143],[118.52353,-34.7149],[118.51313,-34.7178],[118.50963,-34.7235],[118.50633,-34.7228],[118.48443,-34.7308],[118.45403,-34.7476],[118.43403,-34.7664],[118.40954,-34.8013],[118.40474,-34.8184],[118.39724,-34.8357],[118.39474,-34.8447],[118.39434,-34.8677],[118.39784,-34.8781],[118.40744,-34.8801],[118.41914,-34.8824],[118.42264,-34.8897],[118.41994,-34.8919],[118.42284,-34.8958],[118.42234,-34.8982],[118.41084,-34.902],[118.40454,-34.9018],[118.39984,-34.9044],[118.40224,-34.9137],[118.39544,-34.9168],[118.39264,-34.9161],[118.39024,-34.913],[118.38884,-34.9141],[118.38594,-34.9084],[118.37114,-34.9025],[118.35834,-34.9031],[118.35444,-34.9049],[118.34244,-34.899],[118.33614,-34.9003],[118.32854,-34.8973],[118.32854,-34.8955],[118.33184,-34.8935],[118.33074,-34.8917],[118.32604,-34.8951],[118.32494,-34.8978],[118.31784,-34.9011],[118.31704,-34.9031],[118.29784,-34.9026],[118.29644,-34.9046],[118.29974,-34.9098],[118.29094,-34.9118],[118.28054,-34.912],[118.26114,-34.9073],[118.25704,-34.9082],[118.25204,-34.9163],[118.25014,-34.9147],[118.24684,-34.9149],[118.24444,-34.9169],[118.23924,-34.9144],[118.21064,-34.9278],[118.20514,-34.9334],[118.20724,-34.939],[118.21134,-34.9411],[118.20784,-34.9415],[118.20344,-34.9397],[118.19574,-34.9408],[118.19304,-34.938],[118.18354,-34.9371],[118.18154,-34.9396],[118.17854,-34.9389],[118.17504,-34.9402],[118.17224,-34.9447],[118.17044,-34.9589],[118.17474,-34.9674],[118.17774,-34.9693],[118.18404,-34.9684],[118.18844,-34.9648],[118.19384,-34.9721],[118.20344,-34.9728],[118.20754,-34.9773],[118.20584,-34.9791],[118.20914,-34.9852],[118.20134,-34.9942],[118.19994,-35.0021],[118.20424,-35.0082],[118.20424,-35.0118],[118.20114,-35.0129],[118.20084,-35.0163],[118.19374,-35.0239],[118.18714,-35.0261],[118.18764,-35.0239],[118.19064,-35.0232],[118.19074,-35.0156],[118.17794,-35.0141],[118.17734,-35.0164],[118.17484,-35.017],[118.17184,-35.0127],[118.17544,-35.0139],[118.17194,-35.0078],[118.17474,-35.0044],[118.16764,-34.9978],[118.16714,-34.9949],[118.16444,-34.9935],[118.16054,-34.994],[118.13844,-34.9875],[118.10284,-34.9861],[118.08174,-34.9905],[118.06414,-34.9978],[118.06104,-35.00091],[118.06184,-35.00321],[118.05054,-35.01011],[118.05134,-35.01481],[118.04774,-35.01501],[118.04504,-35.01731],[118.04064,-35.01571],[118.03764,-35.01651],[118.03624,-35.02151],[118.02934,-35.02191],[118.02744,-35.01961],[118.02174,-35.01751],[118.00914,-35.01881],[118.00194,-35.02301],[118.00254,-35.01831],[118.00474,-35.01451],[117.99584,-35.01101],[117.98414,-35.01211],[117.98314,-35.01281],[117.96904,-35.01581],[117.96404,-35.01311],[117.96054,-35.01251],[117.95104,-35.00621],[117.94934,-35.00171],[117.95304,-34.99741],[117.96524,-34.99741],[117.96714,-34.99651],[117.97824,-34.98841],[117.97624,-34.97211],[117.97194,-34.96061],[117.97784,-34.94761],[117.97824,-34.93831],[117.97384,-34.93791],[117.97424,-34.94961],[117.97044,-34.95021],[117.96394,-34.94701],[117.95054,-34.94561],[117.94754,-34.94421],[117.94514,-34.95701],[117.94764,-34.97011],[117.94644,-34.97831],[117.94584,-34.98141],[117.93984,-34.98371],[117.93944,-34.98691],[117.94014,-34.99081],[117.94024,-34.99281],[117.94154,-34.99251],[117.94794,-34.99831],[117.94784,-35.00001],[117.93124,-35.00701],[117.92484,-35.01291],[117.91884,-35.02201],[117.91904,-35.02571],[117.92434,-35.02701],[117.92464,-35.02921],[117.92304,-35.03391],[117.91984,-35.03671],[117.91464,-35.03671],[117.91034,-35.03771],[117.90204,-35.03601],[117.89974,-35.03681],[117.89124,-35.03181],[117.88594,-35.02981],[117.87804,-35.03041],[117.87384,-35.02941],[117.86634,-35.02851],[117.86004,-35.02891],[117.85624,-35.03121],[117.85294,-35.03481],[117.85074,-35.03751],[117.84954,-35.04811],[117.85694,-35.05251],[117.85764,-35.05811],[117.86724,-35.05801],[117.87104,-35.06361],[117.88034,-35.06691],[117.88134,-35.07071],[117.89054,-35.07801],[117.91104,-35.08361],[117.92214,-35.07981],[117.92774,-35.06931],[117.92694,-35.06461],[117.92394,-35.06141],[117.91464,-35.05751],[117.91034,-35.05321],[117.91534,-35.05051],[117.91314,-35.04531],[117.91434,-35.04221],[117.91794,-35.04101],[117.92414,-35.04451],[117.92084,-35.04831],[117.92134,-35.05281],[117.92814,-35.05651],[117.93064,-35.05511],[117.93934,-35.06061],[117.93404,-35.06441],[117.93364,-35.07571],[117.93894,-35.08851],[117.94204,-35.08881],[117.94414,-35.09271],[117.94634,-35.09221],[117.94804,-35.08881],[117.95234,-35.09381],[117.96964,-35.09671],[117.99074,-35.09231],[117.99494,-35.08831],[118.00234,-35.08791],[118.00964,-35.09271],[118.01674,-35.10111],[118.01584,-35.10361],[118.01964,-35.10581],[118.02104,-35.10881],[118.01934,-35.11011],[118.00984,-35.10551],[118.00714,-35.10121],[118.00054,-35.09991],[117.99234,-35.10161],[117.99014,-35.09981],[117.97834,-35.09971],[117.96764,-35.10451],[117.96674,-35.10971],[117.96804,-35.11421],[117.95724,-35.12231],[117.95394,-35.12291],[117.95114,-35.12761],[117.94424,-35.12821],[117.94214,-35.12711],[117.94574,-35.12281],[117.94104,-35.11991],[117.93974,-35.11601],[117.93174,-35.12051],[117.92244,-35.12201],[117.91974,-35.11721],[117.90794,-35.11491],[117.90054,-35.11731],[117.89964,-35.12201],[117.89964,-35.12401],[117.89744,-35.12451],[117.89064,-35.11921],[117.88964,-35.11471],[117.88544,-35.11451],[117.88224,-35.11041],[117.87264,-35.10801],[117.86444,-35.11071],[117.85984,-35.10341],[117.84974,-35.09931],[117.84844,-35.09561],[117.82914,-35.08351],[117.81954,-35.08051],[117.76774,-35.05681],[117.72894,-35.04811],[117.70874,-35.04591],[117.69904,-35.05281],[117.69194,-35.04781],[117.68654,-35.04501],[117.67414,-35.04821],[117.64714,-35.06081],[117.64484,-35.06601],[117.65064,-35.08141],[117.65034,-35.08521],[117.64834,-35.08721],[117.63894,-35.09051],[117.63594,-35.09341],[117.63634,-35.10281],[117.63014,-35.11111],[117.62954,-35.11491],[117.63684,-35.12491],[117.64064,-35.12381],[117.63854,-35.13551],[117.63154,-35.12981],[117.62744,-35.12961],[117.62484,-35.13521],[117.61694,-35.13191],[117.61064,-35.13361],[117.61064,-35.13051],[117.60624,-35.12911],[117.60694,-35.12101],[117.60564,-35.11691],[117.59854,-35.11351],[117.59374,-35.10731],[117.58394,-35.10431],[117.58124,-35.10091],[117.54474,-35.08251],[117.52734,-35.07571],[117.51824,-35.07921],[117.51794,-35.07681],[117.51384,-35.07671],[117.51164,-35.07941],[117.51324,-35.08281],[117.51014,-35.08451],[117.49694,-35.08601],[117.49714,-35.08941],[117.49474,-35.09091],[117.48434,-35.08971],[117.48274,-35.08441],[117.48424,-35.08041],[117.47714,-35.07311],[117.42444,-35.04701],[117.41824,-35.04271],[117.39814,-35.03431],[117.39214,-35.03041],[117.39354,-35.02791],[117.37874,-35.02661],[117.37504,-35.02321],[117.36844,-35.02201],[117.36154,-35.02331],[117.34814,-35.02241],[117.34824,-35.01931],[117.37224,-35.00901],[117.36274,-35.00551],[117.37704,-35.00391],[117.38034,-35.00191],[117.39074,-35.00131],[117.39684,-34.99761],[117.39834,-35.00481],[117.42964,-35.01461],[117.43994,-35.02201],[117.44704,-35.02391],[117.46464,-35.01931],[117.47044,-35.01961],[117.47504,-35.02171],[117.47974,-35.02161],[117.47574,-35.01501],[117.46554,-35.01481],[117.46454,-35.01121],[117.46814,-35.00881],[117.46024,-35.00601],[117.47034,-35.00771],[117.48004,-35.00081],[117.47844,-34.99791],[117.47884,-34.99271],[117.47364,-34.97911],[117.46664,-34.97001],[117.45984,-34.97021],[117.45634,-34.96561],[117.44834,-34.96551],[117.44064,-34.97151],[117.42864,-34.98351],[117.42234,-34.98121],[117.41984,-34.98271],[117.41254,-34.97911],[117.40654,-34.97921],[117.39984,-34.97151],[117.38924,-34.96681],[117.38064,-34.96871],[117.37254,-34.96691],[117.36924,-34.96821],[117.36754,-34.97281],[117.36404,-34.97761],[117.36414,-34.97851],[117.36354,-34.98131],[117.36214,-34.98481],[117.35884,-34.98811],[117.35834,-34.98911],[117.35584,-34.99031],[117.35414,-34.99101],[117.35374,-34.99031],[117.35314,-34.98671],[117.34684,-34.98641],[117.34404,-34.98861],[117.34314,-34.98861],[117.34114,-34.98961],[117.33904,-34.99191],[117.33554,-34.99681],[117.33634,-35.00481],[117.33224,-35.00681],[117.32724,-35.00931],[117.32634,-35.01051],[117.32814,-35.02532],[117.33644,-35.03441],[117.33634,-35.03671],[117.33114,-35.04072],[117.33294,-35.04292],[117.32634,-35.04602],[117.31654,-35.04452],[117.31554,-35.04002],[117.29154,-35.03002],[117.26754,-35.02342],[117.26234,-35.02332],[117.26124,-35.02562],[117.24654,-35.03172],[117.23324,-35.02582],[117.20844,-35.01922],[117.19614,-35.01952],[117.17714,-35.02352],[117.16354,-35.02962],[117.15874,-35.03742],[117.16004,-35.04012],[117.16224,-35.04082],[117.16084,-35.04222],[117.16294,-35.04602],[117.15414,-35.04752],[117.15045,-35.05602],[117.15525,-35.05992],[117.15025,-35.06302],[117.14415,-35.05572],[117.13755,-35.05402],[117.13565,-35.05582],[117.13315,-35.05372],[117.13085,-35.04832],[117.10334,-35.03802],[117.10044,-35.03522],[117.08134,-35.03112],[117.07694,-35.03192],[117.07524,-35.03462],[117.07274,-35.03372],[117.07075,-35.03842],[117.06585,-35.03742],[117.05914,-35.02942],[117.05254,-35.03092],[117.03264,-35.02592],[117.02554,-35.02642],[117.02295,-35.02862],[117.02315,-35.03252],[117.01765,-35.03562],[117.01355,-35.03482],[117.01055,-35.03112],[116.97144,-35.01842],[116.94975,-35.01942],[116.93615,-35.02642],[116.92965,-35.03372],[116.93155,-35.03672],[116.92685,-35.03712],[116.92545,-35.03862],[116.92625,-35.04092],[116.92355,-35.04942],[116.91995,-35.04892],[116.92195,-35.05682],[116.92025,-35.05882],[116.91265,-35.05782],[116.89955,-35.05422],[116.89635,-35.05192],[116.88995,-35.05402],[116.88595,-35.05152],[116.88585,-35.05422],[116.88305,-35.05532],[116.88275,-35.04782],[116.88115,-35.04532],[116.87755,-35.04482],[116.87315,-35.04882],[116.86665,-35.04512],[116.86255,-35.04552],[116.85905,-35.05062],[116.85845,-35.05512],[116.85045,-35.04502],[116.84305,-35.04602],[116.84375,-35.04132],[116.84185,-35.03932],[116.83145,-35.03732],[116.82535,-35.04012],[116.82345,-35.03922],[116.82255,-35.03282],[116.80735,-35.02362],[116.80435,-35.02312],[116.79845,-35.01962],[116.78545,-35.01492],[116.78055,-35.01392],[116.76545,-35.01202],[116.74815,-35.01472],[116.73895,-35.02102],[116.73995,-35.02472],[116.74305,-35.02722],[116.74055,-35.03212],[116.72535,-35.03682],[116.71935,-35.03652],[116.71445,-35.03082],[116.70465,-35.02922],[116.69805,-35.03232],[116.69175,-35.03202],[116.68565,-35.03382],[116.67625,-35.04232],[116.67245,-35.04202],[116.66825,-35.04632],[116.66195,-35.04562],[116.66085,-35.04712],[116.66195,-35.04942],[116.64965,-35.04822],[116.64605,-35.04592],[116.64465,-35.04972],[116.63725,-35.05242],[116.63615,-35.05532],[116.63145,-35.05772],[116.62815,-35.05572],[116.62655,-35.05142],[116.62745,-35.04532],[116.62615,-35.04172],[116.61985,-35.03642],[116.60295,-35.02932],[116.58875,-35.02992],[116.58575,-35.02672],[116.57695,-35.02672],[116.57335,-35.02952],[116.57115,-35.02842],[116.57235,-35.02593],[116.57075,-35.02142],[116.55575,-35.01363],[116.52215,-35.00253],[116.50295,-35.00673],[116.50075,-35.00893],[116.50095,-35.01203],[116.48995,-35.01423],[116.48925,-35.01133],[116.48395,-35.01393],[116.48155,-35.01163],[116.48325,-35.00873],[116.46775,-34.99353],[116.45205,-34.98553],[116.44555,-34.97983],[116.43275,-34.97493],[116.43255,-34.97093],[116.39885,-34.95123],[116.38845,-34.94663],[116.38055,-34.94513],[116.36975,-34.93783],[116.37115,-34.93613],[116.37495,-34.93593],[116.37934,-34.93343],[116.36894,-34.93223],[116.35724,-34.92673],[116.35344,-34.92803],[116.34824,-34.92733],[116.31754,-34.91103],[116.31184,-34.90913],[116.29994,-34.90023],[116.29504,-34.90043],[116.29184,-34.89743],[116.28364,-34.89443],[116.28094,-34.89033],[116.24314,-34.87483],[116.20014,-34.86223],[116.18224,-34.85773],[116.17384,-34.85243],[116.12374,-34.84113],[116.11264,-34.84593],[116.10304,-34.84763],[116.09814,-34.84933],[116.09244,-34.84793],[116.08774,-34.84943],[116.05644,-34.84053],[116.04034,-34.84093],[116.03414,-34.83753],[116.02724,-34.83793],[116.02144,-34.84053],[116.01634,-34.83773],[116.01084,-34.83793],[116.00564,-34.84013],[116.00074,-34.83983],[115.99994,-34.83393],[115.99624,-34.82983],[115.99494,-34.82553],[116.00054,-34.82273],[115.99414,-34.81203],[115.98684,-34.79363],[115.98094,-34.78883],[115.97624,-34.77683],[115.95424,-34.75203],[115.95574,-34.73583],[115.94194,-34.71463],[115.92394,-34.69823],[115.89844,-34.67913],[115.85814,-34.63603],[115.82904,-34.61383],[115.78444,-34.57453],[115.68744,-34.49803],[115.66924,-34.48224],[115.64504,-34.46394],[115.60164,-34.43634],[115.55384,-34.41504],[115.54024,-34.42394],[115.53644,-34.42264],[115.53344,-34.41764],[115.53624,-34.41294],[115.52294,-34.40004],[115.50944,-34.39094],[115.49394,-34.38574],[115.48114,-34.38434],[115.47304,-34.37864],[115.46494,-34.37524],[115.45794,-34.36694],[115.44624,-34.35944],[115.37664,-34.32574],[115.35494,-34.31914],[115.33084,-34.31454],[115.32134,-34.31514],[115.27584,-34.30834],[115.24864,-34.30824],[115.22744,-34.31104],[115.20764,-34.31164],[115.19544,-34.31314],[115.16804,-34.32034],[115.16144,-34.32154],[115.15944,-34.31754],[115.16004,-34.31534],[115.15764,-34.31154],[115.16124,-34.30474],[115.15834,-34.30044],[115.16354,-34.29604],[115.16644,-34.29714],[115.17574,-34.29134],[115.18044,-34.28984],[115.18124,-34.28714],[115.17934,-34.28464],[115.18024,-34.28164],[115.18974,-34.27994],[115.20084,-34.27644],[115.20774,-34.26964],[115.19874,-34.27144],[115.19804,-34.26394],[115.19394,-34.26264],[115.19244,-34.27344],[115.18754,-34.27604],[115.18214,-34.27424],[115.16774,-34.27554],[115.16614,-34.27374],[115.16554,-34.27734],[115.16204,-34.27774],[115.16044,-34.27414],[115.16214,-34.27004],[115.17114,-34.26834],[115.17004,-34.26384],[115.16544,-34.26374],[115.15264,-34.27044],[115.14984,-34.27404],[115.15384,-34.28064],[115.15404,-34.29124],[115.15084,-34.29184],[115.14274,-34.28684],[115.13944,-34.28734],[115.13994,-34.29584],[115.14184,-34.29824],[115.14214,-34.29854],[115.14314,-34.29714],[115.15024,-34.29654],[115.15364,-34.30424],[115.15234,-34.30934],[115.15634,-34.32114],[115.15724,-34.32324],[115.16194,-34.32374],[115.16404,-34.32484],[115.16264,-34.32694],[115.16084,-34.33814],[115.16134,-34.34304],[115.16094,-34.35214],[115.15284,-34.36494],[115.13684,-34.36754],[115.13424,-34.37494],[115.13024,-34.37514],[115.12884,-34.36974],[115.13144,-34.36134],[115.12714,-34.35914],[115.12444,-34.35524],[115.12064,-34.35594],[115.12094,-34.35114],[115.11184,-34.34004],[115.08624,-34.32124],[115.07394,-34.30014],[115.05994,-34.28944],[115.04624,-34.27134],[115.04224,-34.26724],[115.03274,-34.26714],[115.02954,-34.26424],[115.02774,-34.25604],[115.01804,-34.25174],[115.02184,-34.24634],[115.02244,-34.23844],[115.02554,-34.23554],[115.02133,-34.22024],[115.03073,-34.20354],[115.03243,-34.19594],[115.02043,-34.15484],[115.01523,-34.15634],[115.01743,-34.15234],[115.01403,-34.14214],[114.99533,-34.11564],[114.99163,-34.10724],[114.98553,-34.10094],[114.98643,-34.08964],[114.98943,-34.08624],[114.99353,-34.08454],[114.99613,-34.07364],[114.99183,-34.06424],[114.99353,-34.05944],[114.99733,-34.05744],[114.99523,-34.05184],[114.99743,-34.04784],[114.99433,-34.03674],[114.99683,-34.03334],[114.99573,-34.01014],[114.98723,-33.99184],[114.98973,-33.99064],[114.99003,-33.98734],[114.98763,-33.98414],[114.98763,-33.97894],[114.98423,-33.97624],[114.98503,-33.97174],[114.97913,-33.96034],[114.98323,-33.96084],[114.98903,-33.95364],[114.99003,-33.92454],[114.98713,-33.92294],[114.98633,-33.91844],[114.98803,-33.91464],[114.98483,-33.91194],[114.98523,-33.90464],[114.97913,-33.86604],[114.97653,-33.86284],[114.98543,-33.86364],[114.98713,-33.85944],[114.98633,-33.85424],[114.99273,-33.84574],[114.99413,-33.84124],[114.99373,-33.83044],[114.99783,-33.81934],[114.99743,-33.80504],[114.99973,-33.80014],[114.99943,-33.78874],[114.99633,-33.78564],[114.99283,-33.77194],[114.98953,-33.76674],[114.99063,-33.76354],[114.98963,-33.75734],[114.99283,-33.74984],[114.98783,-33.74364],[114.98743,-33.73414],[114.97993,-33.71334],[114.97973,-33.70794],[114.97633,-33.70284],[114.97503,-33.70314],[114.97503,-33.69594],[114.98123,-33.69864],[114.98303,-33.69804],[114.98243,-33.69974],[114.98733,-33.69884],[114.99163,-33.69074],[114.99262,-33.68054],[114.99202,-33.67764],[114.99622,-33.67564],[114.99672,-33.67404],[114.99302,-33.66794],[114.99322,-33.66574],[114.99632,-33.66794],[114.99752,-33.66934],[115.00022,-33.66824],[115.00352,-33.66184],[115.00582,-33.66214],[115.00682,-33.65834],[115.00932,-33.65704],[115.01282,-33.65804],[115.02082,-33.65094],[115.02202,-33.63994],[115.02892,-33.63284],[115.02612,-33.62464],[115.02372,-33.61304],[115.00762,-33.56614],[115.00482,-33.55754],[115.01012,-33.55474],[115.01032,-33.54774],[115.00702,-33.54564],[115.00652,-33.53664],[115.00162,-33.52964],[115.00302,-33.52834],[115.02472,-33.53274],[115.02852,-33.53184],[115.03182,-33.53364],[115.03352,-33.54164],[115.03852,-33.54304],[115.05082,-33.54204],[115.05842,-33.54494],[115.05782,-33.54794],[115.06382,-33.55124],[115.06452,-33.55554],[115.07562,-33.55974],[115.08402,-33.56524],[115.08792,-33.56834],[115.08702,-33.57154],[115.09002,-33.57384],[115.09812,-33.58254],[115.09932,-33.59154],[115.10292,-33.59344],[115.10482,-33.60264],[115.10392,-33.60514],[115.11732,-33.62024],[115.12862,-33.62414],[115.14162,-33.62714],[115.17802,-33.63944],[115.21312,-33.65134],[115.23742,-33.65354],[115.24652,-33.65604],[115.25762,-33.65624],[115.28152,-33.65604],[115.29832,-33.65604],[115.31242,-33.65364],[115.32232,-33.65164],[115.32882,-33.64994],[115.33422,-33.64804],[115.33972,-33.64584],[115.34322,-33.64484],[115.34982,-33.64334],[115.35652,-33.64244],[115.36872,-33.63804],[115.37132,-33.63764],[115.39772,-33.62584],[115.41742,-33.61324],[115.42912,-33.60424],[115.44252,-33.59004],[115.45252,-33.57784],[115.48242,-33.54854],[115.51102,-33.51514],[115.51802,-33.51044],[115.52922,-33.49454],[115.53592,-33.48894],[115.53942,-33.48454],[115.55552,-33.46604],[115.56382,-33.46004],[115.57672,-33.44224],[115.58592,-33.42934],[115.60942,-33.37993],[115.61802,-33.35323],[115.61962,-33.34763],[115.62152,-33.34153],[115.62302,-33.33683],[115.62582,-33.33243],[115.62772,-33.32773],[115.62922,-33.32313],[115.63502,-33.30823],[115.63632,-33.30833],[115.64212,-33.30463],[115.64472,-33.30143],[115.64502,-33.30303],[115.64092,-33.30633],[115.63932,-33.30933],[115.63582,-33.31023],[115.63712,-33.31443],[115.64142,-33.31023],[115.64215,-33.30944],[115.63822,-33.31653],[115.64012,-33.31803],[115.63902,-33.32053],[115.63802,-33.32203],[115.63972,-33.32333],[115.64672,-33.32573],[115.65222,-33.32633],[115.65802,-33.32643],[115.65412,-33.32533],[115.65182,-33.32453],[115.65322,-33.32313],[115.64752,-33.32433],[115.64732,-33.32343],[115.64032,-33.32103],[115.64122,-33.31783],[115.64312,-33.31813],[115.64402,-33.31813],[115.65262,-33.31783],[115.66082,-33.32413],[115.66482,-33.32083],[115.66152,-33.31793],[115.66232,-33.31643],[115.65742,-33.31813],[115.65732,-33.31663],[115.65892,-33.31363],[115.66532,-33.30943],[115.66972,-33.30333],[115.67312,-33.30513],[115.67352,-33.30863],[115.66952,-33.31053],[115.67092,-33.31103],[115.67592,-33.31463],[115.67552,-33.32053],[115.68462,-33.31913],[115.68732,-33.31493],[115.68912,-33.30403],[115.69512,-33.30913],[115.69562,-33.30803],[115.70252,-33.29993],[115.70852,-33.28943],[115.71142,-33.27853],[115.71352,-33.26543],[115.71452,-33.24303],[115.71252,-33.23823],[115.71452,-33.23373],[115.70831,-33.20773],[115.70501,-33.19933],[115.69881,-33.20053],[115.69361,-33.20423],[115.69292,-33.21033],[115.69392,-33.22363],[115.69382,-33.22843],[115.69802,-33.23113],[115.69892,-33.23433],[115.68932,-33.25263],[115.69102,-33.26083],[115.68892,-33.26733],[115.68952,-33.27563],[115.68762,-33.27873],[115.68782,-33.28033],[115.68452,-33.28253],[115.68522,-33.28773],[115.67992,-33.29463],[115.67982,-33.29663],[115.67642,-33.30313],[115.67032,-33.30233],[115.67842,-33.28173],[115.68261,-33.18423],[115.68591,-33.14073],[115.68771,-33.13653],[115.68721,-33.10283],[115.68481,-33.07923],[115.66771,-32.98173],[115.65421,-32.93013],[115.64941,-32.89353],[115.63541,-32.84563],[115.62841,-32.82483],[115.62601,-32.79093],[115.61571,-32.72923],[115.61021,-32.69903],[115.60541,-32.68253],[115.60831,-32.65733],[115.61171,-32.65434],[115.61841,-32.62833],[115.6216,-32.61753],[115.6242,-32.61083],[115.6314,-32.59333],[115.6354,-32.59133],[115.6389,-32.58833],[115.6453,-32.58143],[115.6473,-32.57833],[115.6513,-32.57813],[115.6639,-32.56593],[115.683,-32.54203],[115.6926,-32.52713],[115.6927,-32.52653],[115.7001,-32.51663],[115.7055,-32.51823],[115.7081,-32.51793],[115.7081,-32.52153],[115.7114,-32.52723],[115.7156,-32.53273],[115.7143,-32.53983],[115.7136,-32.54153],[115.7146,-32.54513],[115.713,-32.55353],[115.7141,-32.55493],[115.715,-32.55123],[115.7156,-32.55563],[115.7072,-32.55913],[115.6923,-32.56453],[115.6854,-32.56873],[115.672,-32.57123],[115.6704,-32.57203],[115.6666,-32.57653],[115.6645,-32.58123],[115.6644,-32.58603],[115.6688,-32.59243],[115.6684,-32.59393],[115.6533,-32.59903],[115.6476,-32.60373],[115.6397,-32.61033],[115.6394,-32.61913],[115.6397,-32.62123],[115.6396,-32.62553],[115.644,-32.63093],[115.64631,-32.63243],[115.64531,-32.64493],[115.65381,-32.65713],[115.65251,-32.66343],[115.65401,-32.67193],[115.66161,-32.68243],[115.66311,-32.68983],[115.66611,-32.69563],[115.66911,-32.69673],[115.66961,-32.69993],[115.66761,-32.70273],[115.66721,-32.70783],[115.67151,-32.72553],[115.67711,-32.72893],[115.67561,-32.73463],[115.68061,-32.73963],[115.68211,-32.74803],[115.68781,-32.75113],[115.69391,-32.75103],[115.69191,-32.75463],[115.69041,-32.76263],[115.69451,-32.76943],[115.70101,-32.77183],[115.70331,-32.77893],[115.70781,-32.78223],[115.70961,-32.77493],[115.71041,-32.77013],[115.71371,-32.77233],[115.71301,-32.77363],[115.71901,-32.77953],[115.71881,-32.77803],[115.72071,-32.77773],[115.72091,-32.77563],[115.72311,-32.77433],[115.72141,-32.77363],[115.72161,-32.77123],[115.72391,-32.77023],[115.72221,-32.76533],[115.72431,-32.76553],[115.72271,-32.75103],[115.71621,-32.74033],[115.70911,-32.73933],[115.71161,-32.72683],[115.70021,-32.70993],[115.70051,-32.70733],[115.69481,-32.68793],[115.68811,-32.68063],[115.68451,-32.68073],[115.68311,-32.67453],[115.68581,-32.66503],[115.68391,-32.66263],[115.68391,-32.65513],[115.67791,-32.64553],[115.67371,-32.64283],[115.6656,-32.62993],[115.6676,-32.62313],[115.6649,-32.61653],[115.6648,-32.61323],[115.6674,-32.61313],[115.6689,-32.61133],[115.6748,-32.61383],[115.675,-32.61603],[115.6782,-32.62073],[115.6817,-32.62113],[115.6823,-32.62453],[115.694,-32.63193],[115.70071,-32.64103],[115.70501,-32.64103],[115.7185,-32.63663],[115.7194,-32.62983],[115.7244,-32.63073],[115.7383,-32.64133],[115.74721,-32.64333],[115.7472,-32.64173],[115.7561,-32.63973],[115.7556,-32.63713],[115.7578,-32.63953],[115.7669,-32.63683],[115.7705,-32.63153],[115.7663,-32.62403],[115.7676,-32.62153],[115.7688,-32.62283],[115.7701,-32.62163],[115.7691,-32.61643],[115.7725,-32.60673],[115.7752,-32.59393],[115.7716,-32.59053],[115.7634,-32.58893],[115.7608,-32.58733],[115.7602,-32.57373],[115.7602,-32.57123],[115.7601,-32.56863],[115.7522,-32.56153],[115.7414,-32.56053],[115.7386,-32.56023],[115.7364,-32.55903],[115.7292,-32.55493],[115.7253,-32.55633],[115.7208,-32.55613],[115.7181,-32.54953],[115.7191,-32.53683],[115.7209,-32.54003],[115.7186,-32.53343],[115.7175,-32.53193],[115.7188,-32.52723],[115.7187,-32.52573],[115.7163,-32.52633],[115.7115,-32.52373],[115.7103,-32.51923],[115.7171,-32.51853],[115.7219,-32.51713],[115.7254,-32.51413],[115.7261,-32.51393],[115.7343,-32.50233],[115.7384,-32.49433],[115.7452,-32.47523],[115.7482,-32.45443],[115.7498,-32.43203],[115.7464,-32.40703],[115.7449,-32.40473],[115.731,-32.38423],[115.7163,-32.37183],[115.7135,-32.36993],[115.714,-32.36783],[115.7234,-32.36723],[115.7292,-32.36503],[115.7367,-32.36073],[115.7428,-32.35103],[115.7444,-32.33663],[115.7429,-32.32623],[115.7357,-32.31323],[115.7336,-32.31103],[115.7299,-32.30873],[115.7259,-32.30753],[115.7137,-32.30403],[115.7121,-32.30403],[115.7028,-32.30433],[115.7044,-32.29943],[115.7028,-32.29363],[115.7018,-32.29283],[115.7034,-32.28543],[115.7013,-32.27933],[115.6952,-32.27553],[115.6944,-32.27283],[115.6905,-32.27133],[115.6864,-32.27043],[115.6863,-32.26443],[115.6878,-32.26533],[115.6917,-32.26793],[115.699,-32.27233],[115.7053,-32.27503],[115.7113,-32.27413],[115.718,-32.27473],[115.7209,-32.27603],[115.7259,-32.27533],[115.7285,-32.27413],[115.7337,-32.27103],[115.7362,-32.26913],[115.7464,-32.26023],[115.7549,-32.25093],[115.7594,-32.24133],[115.7601,-32.23573],[115.7572,-32.22683],[115.7572,-32.22083],[115.7636,-32.21423],[115.773,-32.19813],[115.7741,-32.19503],[115.7751,-32.18083],[115.767,-32.15433],[115.767,-32.14873],[115.7647,-32.13943],[115.7614,-32.13783],[115.7563,-32.13453],[115.7473,-32.13413],[115.7453,-32.13523],[115.7492,-32.13203],[115.7561,-32.12843],[115.7576,-32.12693],[115.7624,-32.11383],[115.7608,-32.10043],[115.7578,-32.09413],[115.7561,-32.09113],[115.752,-32.08083],[115.7519,-32.07743],[115.7508,-32.06953],[115.7501,-32.06653],[115.7481,-32.06503],[115.743,-32.06243],[115.74009,-32.05593],[115.73209,-32.05523],[115.73789,-32.05483],[115.74649,-32.04733],[115.75269,-32.04143],[115.75799,-32.04033],[115.75959,-32.04013],[115.76289,-32.03273],[115.76379,-32.03163],[115.76159,-32.02673],[115.76819,-32.02563],[115.77059,-32.02733],[115.77609,-32.02783],[115.78069,-32.02283],[115.78439,-32.01863],[115.78589,-32.01043],[115.79539,-32.01433],[115.80539,-32.01773],[115.81519,-32.02343],[115.81259,-32.02513],[115.81179,-32.02763],[115.81559,-32.02873],[115.82069,-32.02543],[115.82679,-32.02063],[115.82889,-32.01523],[115.82959,-32.01073],[115.82919,-32.00633],[115.83179,-32.00493],[115.83409,-32.00543],[115.83989,-32.00443],[115.84129,-32.00233],[115.84679,-32.00153],[115.84739,-32.00623],[115.85259,-32.01043],[115.85089,-32.01583],[115.85039,-32.01883],[115.85299,-32.02173],[115.85449,-32.02333],[115.85309,-32.02833],[115.85339,-32.03153],[115.85979,-32.04013],[115.85989,-32.04216],[115.86113,-32.04275],[115.86189,-32.04103],[115.86069,-32.03763],[115.86499,-32.03473],[115.86769,-32.03113],[115.87319,-32.03133],[115.87599,-32.03143],[115.88259,-32.02683],[115.88169,-32.02493],[115.88659,-32.02373],[115.89059,-32.02243],[115.89269,-32.02013],[115.90029,-32.02263],[115.90019,-32.02713],[115.90369,-32.02463],[115.90069,-32.02043],[115.89789,-32.01893],[115.89559,-32.01673],[115.88799,-32.01763],[115.87689,-32.02083],[115.87299,-32.02943],[115.86829,-32.02623],[115.86329,-32.02683],[115.86139,-32.03263],[115.85729,-32.02963],[115.86019,-32.02733],[115.85649,-32.02053],[115.85599,-32.01603],[115.85549,-32.01193],[115.85419,-32.01083],[115.85349,-32.00483],[115.85299,-32.00253],[115.85419,-31.99873],[115.85469,-31.99543],[115.85459,-31.99303],[115.85389,-31.99023],[115.85289,-31.98763],[115.84859,-31.97993],[115.84729,-31.97483],[115.84709,-31.97283],[115.84629,-31.96843],[115.84499,-31.96583],[115.84699,-31.96353],[115.84779,-31.96363],[115.85079,-31.96793],[115.85249,-31.96983],[115.85389,-31.97063],[115.86499,-31.97373],[115.87069,-31.97073],[115.87869,-31.97023],[115.88669,-31.96623],[115.89099,-31.96133],[115.88399,-31.94553],[115.88399,-31.94393],[115.88569,-31.94013],[115.89149,-31.93963],[115.89479,-31.94373],[115.89479,-31.94453],[115.89699,-31.95193],[115.90619,-31.95283],[115.91019,-31.95183],[115.91319,-31.95083],[115.91649,-31.94923],[115.91799,-31.94603],[115.91849,-31.94363],[115.91409,-31.94273],[115.90999,-31.93923],[115.90959,-31.93983],[115.90959,-31.93673],[115.91639,-31.93233],[115.93129,-31.93083],[115.93219,-31.93113],[115.93889,-31.92843],[115.94069,-31.92003],[115.94989,-31.92253],[115.95329,-31.91993],[115.96209,-31.91103],[115.96349,-31.90323],[115.96099,-31.89843],[115.95809,-31.89503],[115.95959,-31.89393],[115.95809,-31.89393],[115.95749,-31.89493],[115.96009,-31.89873],[115.96149,-31.90043],[115.96139,-31.90823],[115.95949,-31.91213],[115.95649,-31.91433],[115.95279,-31.91863],[115.94909,-31.92183],[115.94099,-31.91933],[115.94049,-31.91963],[115.93949,-31.92113],[115.93869,-31.92363],[115.93739,-31.92833],[115.92629,-31.93003],[115.91609,-31.93083],[115.91029,-31.93283],[115.90789,-31.93843],[115.91529,-31.94603],[115.91369,-31.94953],[115.89999,-31.95143],[115.89609,-31.94713],[115.89719,-31.94183],[115.89809,-31.94113],[115.89139,-31.93573],[115.88639,-31.93623],[115.88519,-31.93723],[115.88109,-31.94443],[115.88109,-31.94723],[115.88319,-31.95433],[115.88339,-31.96083],[115.88129,-31.96323],[115.87639,-31.96413],[115.86379,-31.96013],[115.85789,-31.95893],[115.85169,-31.95813],[115.84719,-31.96143],[115.84189,-31.96293],[115.83199,-31.97133],[115.82409,-31.97393],[115.82169,-31.97633],[115.82139,-31.98163],[115.82589,-31.98463],[115.82689,-31.98563],[115.81819,-31.98783],[115.81749,-31.98933],[115.81229,-31.99583],[115.80879,-32.00053],[115.80449,-32.00183],[115.79959,-32.00233],[115.79149,-32.00313],[115.78729,-31.99573],[115.78699,-31.99073],[115.78339,-31.98893],[115.78149,-31.98833],[115.77809,-31.98773],[115.77299,-31.98913],[115.77279,-31.99263],[115.77129,-31.99703],[115.77119,-31.99983],[115.77409,-32.00023],[115.77259,-32.00253],[115.77159,-32.00563],[115.77159,-32.00823],[115.78099,-32.01513],[115.78009,-32.01753],[115.77359,-32.02423],[115.76349,-32.02153],[115.75899,-32.02323],[115.75539,-32.02623],[115.75669,-32.02833],[115.75959,-32.02953],[115.75929,-32.03583],[115.75439,-32.03973],[115.75359,-32.03863],[115.74879,-32.03933],[115.73669,-32.05163],[115.73319,-32.05203],[115.73889,-32.04373],[115.74469,-32.03423],[115.74879,-32.02773],[115.75119,-32.02073],[115.75129,-32.01533],[115.75119,-32.00663],[115.75119,-32.00343],[115.75139,-32.00123],[115.75139,-31.99813],[115.75059,-31.99643],[115.75109,-31.99533],[115.75089,-31.99423],[115.75069,-31.99223],[115.75139,-31.98893],[115.75199,-31.98573],[115.75269,-31.98123],[115.75349,-31.97743],[115.75429,-31.96823],[115.75379,-31.95063],[115.75439,-31.92583],[115.75469,-31.91973],[115.75489,-31.91633],[115.75509,-31.90723],[115.75469,-31.89713],[115.75439,-31.89343],[115.75439,-31.89093],[115.75319,-31.88353],[115.75119,-31.87413],[115.75159,-31.87273],[115.75179,-31.86943],[115.75159,-31.86453],[115.75139,-31.86233],[115.75169,-31.85883],[115.75149,-31.85663],[115.75069,-31.85003],[115.75079,-31.84533],[115.74849,-31.83473],[115.74599,-31.83103],[115.74009,-31.82323],[115.73549,-31.81713],[115.72779,-31.80563],[115.73059,-31.79873],[115.73259,-31.78063],[115.73239,-31.77923],[115.72789,-31.76273],[115.72819,-31.76143],[115.71829,-31.72963],[115.71629,-31.72383],[115.70699,-31.71133],[115.70429,-31.69373],[115.69409,-31.67954],[115.68659,-31.67274],[115.68449,-31.66284],[115.67279,-31.63914],[115.66169,-31.62394],[115.65719,-31.60804],[115.63879,-31.57994],[115.63069,-31.56114],[115.62809,-31.55824],[115.61949,-31.54724],[115.61179,-31.53744],[115.60989,-31.53454],[115.60399,-31.52724],[115.59269,-31.50874],[115.58249,-31.50134],[115.57989,-31.49804],[115.57559,-31.49424],[115.57799,-31.49124],[115.57619,-31.48684],[115.57159,-31.47394],[115.55569,-31.45304],[115.55659,-31.44694],[115.55089,-31.43014],[115.51478,-31.36934],[115.49888,-31.35494],[115.49398,-31.34614],[115.47928,-31.32924],[115.45328,-31.29474],[115.43828,-31.27424],[115.43018,-31.25524],[115.42718,-31.25004],[115.42078,-31.22764],[115.41238,-31.20514],[115.42598,-31.19594],[115.41628,-31.17524],[115.39468,-31.16344],[115.38658,-31.14424],[115.38268,-31.12394],[115.37588,-31.11424],[115.36978,-31.10944],[115.36788,-31.09914],[115.36608,-31.09184],[115.35988,-31.08234],[115.35538,-31.07074],[115.34868,-31.05984],[115.33938,-31.03274],[115.33628,-31.02664],[115.33178,-31.02214],[115.32628,-31.01454],[115.32118,-31.01284],[115.32478,-31.00444],[115.32298,-30.99694],[115.32008,-30.98844],[115.32028,-30.98454],[115.32028,-30.97884],[115.31438,-30.97154],[115.30628,-30.96744],[115.29968,-30.95334],[115.29068,-30.94534],[115.28898,-30.93364],[115.28408,-30.92904],[115.27748,-30.91754],[115.27278,-30.91544],[115.27098,-30.91224],[115.27268,-30.90824],[115.26808,-30.89774],[115.26398,-30.89484],[115.25348,-30.87644],[115.24238,-30.87114],[115.24168,-30.86504],[115.23838,-30.85794],[115.21558,-30.83024],[115.20778,-30.82584],[115.20048,-30.82464],[115.18838,-30.82874],[115.19138,-30.80534],[115.18708,-30.78204],[115.16228,-30.72964],[115.15467,-30.71764],[115.15477,-30.71044],[115.13817,-30.67254],[115.13427,-30.66804],[115.13167,-30.65404],[115.11897,-30.63284],[115.11557,-30.61954],[115.10867,-30.61224],[115.10867,-30.60704],[115.10357,-30.60294],[115.10207,-30.59814],[115.10477,-30.59304],[115.09657,-30.58224],[115.08987,-30.57974],[115.08837,-30.57584],[115.09057,-30.57094],[115.09177,-30.56234],[115.09417,-30.55854],[115.09447,-30.55184],[115.08847,-30.53794],[115.07447,-30.51884],[115.05827,-30.50984],[115.05807,-30.50345],[115.05797,-30.50005],[115.06947,-30.48335],[115.07127,-30.48155],[115.06877,-30.46985],[115.06307,-30.45465],[115.06187,-30.44815],[115.05357,-30.43425],[115.05127,-30.42655],[115.05077,-30.39875],[115.05107,-30.37915],[115.04337,-30.34325],[115.03507,-30.32935],[115.02047,-30.31835],[115.02287,-30.31545],[115.02777,-30.31435],[115.02957,-30.30975],[115.04077,-30.29465],[115.04367,-30.29355],[115.04277,-30.27055],[115.03867,-30.25425],[115.02937,-30.23795],[115.00947,-30.22795],[115.00127,-30.22555],[114.99757,-30.22935],[114.99547,-30.22685],[114.99767,-30.22075],[114.99557,-30.20675],[114.99227,-30.20605],[114.99577,-30.19885],[114.99497,-30.18415],[114.99217,-30.17965],[114.99867,-30.17925],[115.00067,-30.17025],[115.00407,-30.16895],[115.00267,-30.15795],[115.00507,-30.15455],[115.00317,-30.14715],[114.99787,-30.12105],[114.98557,-30.08255],[114.97727,-30.07185],[114.96327,-30.06875],[114.96207,-30.06375],[114.96477,-30.05725],[114.96437,-30.05155],[114.95797,-30.05065],[114.95387,-30.04765],[114.95367,-30.04045],[114.95856,-30.03055],[114.95806,-30.02585],[114.96026,-30.02175],[114.96046,-30.01115],[114.96546,-30.00695],[114.96736,-30.00245],[114.96286,-29.99225],[114.96456,-29.98185],[114.96266,-29.97355],[114.97116,-29.96305],[114.97156,-29.95775],[114.97256,-29.95435],[114.97476,-29.94335],[114.97696,-29.94255],[114.97906,-29.93175],[114.97876,-29.93245],[114.98246,-29.91395],[114.97746,-29.89135],[114.97816,-29.85475],[114.98076,-29.85325],[114.97856,-29.84035],[114.96726,-29.81705],[114.96096,-29.79425],[114.96106,-29.77825],[114.95846,-29.77375],[114.95816,-29.74975],[114.95596,-29.73305],[114.95716,-29.69545],[114.95886,-29.68835],[114.95696,-29.67775],[114.95916,-29.66125],[114.96706,-29.63845],[114.96736,-29.61855],[114.97116,-29.60965],[114.97156,-29.59525],[114.97626,-29.56705],[114.97846,-29.55225],[114.99406,-29.51015],[114.99496,-29.48535],[114.98606,-29.46195],[114.97296,-29.43365],[114.96736,-29.41255],[114.95985,-29.40405],[114.95755,-29.39365],[114.96065,-29.37565],[114.95745,-29.35955],[114.93935,-29.32375],[114.92615,-29.30995],[114.92335,-29.29785],[114.92195,-29.28635],[114.92045,-29.28305],[114.91685,-29.27795],[114.91875,-29.27625],[114.92385,-29.26995],[114.92145,-29.26275],[114.92215,-29.25925],[114.92265,-29.25895],[114.92375,-29.25495],[114.92895,-29.25505],[114.93362,-29.25437],[114.92665,-29.25395],[114.92335,-29.25455],[114.92215,-29.25695],[114.92035,-29.25185],[114.90275,-29.20785],[114.88635,-29.16145],[114.88025,-29.13925],[114.87115,-29.11715],[114.85615,-29.09425],[114.83775,-29.07265],[114.82735,-29.05945],[114.81575,-29.04795],[114.79325,-29.02675],[114.78045,-29.01235],[114.74495,-28.98205],[114.68465,-28.92916],[114.67805,-28.91986],[114.63785,-28.87976],[114.63455,-28.87456],[114.63465,-28.86636],[114.64085,-28.85906],[114.63635,-28.85926],[114.63025,-28.86006],[114.62835,-28.85426],[114.62315,-28.84716],[114.62155,-28.83956],[114.62665,-28.82926],[114.62315,-28.82056],[114.61475,-28.79926],[114.60865,-28.79046],[114.60285,-28.78786],[114.59415,-28.78746],[114.59155,-28.78226],[114.58795,-28.78096],[114.57575,-28.78026],[114.57605,-28.77476],[114.58425,-28.77176],[114.58585,-28.77066],[114.58565,-28.77186],[114.58625,-28.77276],[114.60075,-28.77256],[114.60575,-28.77026],[114.61095,-28.76426],[114.61225,-28.76056],[114.61315,-28.75466],[114.61535,-28.74576],[114.61655,-28.73346],[114.61735,-28.72636],[114.61345,-28.70626],[114.60405,-28.68386],[114.60385,-28.68026],[114.61004,-28.67056],[114.61044,-28.66176],[114.60764,-28.65166],[114.60384,-28.64636],[114.60244,-28.63376],[114.59164,-28.60546],[114.58164,-28.58786],[114.58034,-28.57946],[114.57334,-28.57236],[114.56554,-28.55706],[114.56094,-28.55086],[114.56224,-28.54756],[114.55774,-28.54006],[114.55544,-28.53826],[114.55274,-28.52846],[114.53584,-28.50496],[114.52784,-28.48816],[114.49604,-28.45116],[114.49174,-28.44386],[114.46114,-28.41816],[114.45304,-28.40886],[114.43384,-28.39456],[114.42804,-28.38766],[114.42494,-28.37416],[114.40734,-28.34506],[114.40794,-28.33856],[114.40444,-28.33196],[114.38524,-28.31496],[114.38044,-28.30836],[114.37464,-28.30376],[114.37324,-28.29716],[114.36184,-28.28496],[114.34904,-28.27506],[114.34674,-28.26946],[114.33794,-28.26146],[114.33594,-28.25586],[114.33164,-28.25196],[114.32944,-28.24286],[114.32094,-28.22906],[114.30814,-28.22086],[114.27724,-28.20746],[114.24644,-28.18616],[114.23914,-28.18366],[114.23114,-28.17277],[114.19334,-28.12207],[114.18624,-28.11537],[114.17924,-28.11307],[114.17344,-28.10857],[114.16874,-28.09177],[114.16504,-28.08407],[114.16334,-28.08267],[114.16504,-28.07607],[114.15114,-28.00317],[114.13654,-27.94147],[114.12163,-27.89387],[114.10935,-27.86076],[114.10832,-27.85847],[114.11042,-27.85402],[114.1126,-27.85302],[114.11481,-27.85436],[114.13013,-27.68941],[114.16114,-27.69393],[114.22221,-27.66728]],[[114.93855,-29.25365],[114.93805,-29.25235],[114.93547,-29.2541],[114.93855,-29.25365]]],[[[119.49442,-34.40539],[119.48952,-34.40569],[119.47922,-34.40329],[119.47622,-34.40079],[119.47662,-34.39719],[119.47992,-34.39739],[119.48312,-34.39559],[119.48822,-34.38969],[119.48838,-34.38756],[119.50578,-34.41002],[119.49942,-34.41069],[119.49442,-34.40539]]]]}}]}